[{"OBJECT_NAME":"STARLINK-30760","OBJECT_ID":"2023-167N","EPOCH":"2026-03-09T12:41:23.312256","MEAN_MOTION":15.26739238,"ECCENTRICITY":0.0001007,"INCLINATION":42.9998,"RA_OF_ASC_NODE":144.0264,"ARG_OF_PERICENTER":208.5156,"MEAN_ANOMALY":151.564,"EPHEMERIS_TYPE":0,"CLASSIFICATION_TYPE":"U","NORAD_CAT_ID":58187,"ELEMENT_SET_NO":999,"REV_AT_EPOCH":13096,"BSTAR":-5.2348e-5,"MEAN_MOTION_DOT":-1.663e-5,"MEAN_MOTION_DDOT":0},{"OBJECT_NAME":"KUIPER-00209","OBJECT_ID":"2026-030N","EPOCH":"2026-03-09T14:49:43.575744","MEAN_MOTION":15.3016195,"ECCENTRICITY":0.0012191,"INCLINATION":51.8838,"RA_OF_ASC_NODE":220.0775,"ARG_OF_PERICENTER":59.1967,"MEAN_ANOMALY":301.0215,"EPHEMERIS_TYPE":0,"CLASSIFICATION_TYPE":"U","NORAD_CAT_ID":67776,"ELEMENT_SET_NO":999,"REV_AT_EPOCH":507,"BSTAR":0.0011963,"MEAN_MOTION_DOT":0.00035298,"MEAN_MOTION_DDOT":0}]
